ONEWEB-0412             
1 50489U 21132W   24008.92104270 -.00000047  00000+0 -15239-3 0  9999
2 50489  87.9232 152.6010 0001369 125.6985 234.4275 13.18687980104327
ONEWEB-0413             
1 50490U 21132X   24008.92578628 -.00000050  00000+0 -15923-3 0  9997
2 50490  87.9233 152.6134 0001498 118.7044 241.4238 13.18688789105550
ONEWEB-0414             
1 50491U 21132Y   24008.91156984 -.00000055  00000+0 -17156-3 0  9999
2 50491  87.9227 152.6016 0001244 114.5728 245.5534 13.18687769104296
ONEWEB-0417             
1 50492U 21132Z   24008.91946110 -.00000033  00000+0 -11629-3 0  9993
2 50492  87.9236 152.5913 0001350  90.5090 269.6197 13.18688227104275
ONEWEB-0418             
1 50493U 21132AA  24008.93291278 -.00000006  00000+0 -48230-4 0  9993
2 50493  87.9232 152.5997 0001229  83.8129 276.3143 13.18685314104334
ONEWEB-0419             
1 50494U 21132AB  24008.94634598 -.00000007  00000+0 -49845-4 0  9995
2 50494  87.9228 152.6187 0001617  87.6196 272.5121 13.18686051104253
ONEWEB-0420             
1 50495U 21132AC  24008.91313921 -.00000142  00000+0 -39322-3 0  9995
2 50495  87.9226 152.6336 0001790 113.2332 246.8989 13.18686917105548
ONEWEB-0421             
1 50496U 21132AD  24008.90683765 -.00000025  00000+0 -97172-4 0  9999
2 50496  87.9235 152.5881 0001270 120.9495 239.1762 13.18686924104283
